BEIDOU-2 IGSO-1 (C06)   
1 36828U 10036A   26061.07189801 -.00000163  00000+0  00000+0 0  9995
2 36828  54.2922 163.9315 0053965 219.0406 268.0169  1.00252677 57027
BEIDOU-2 G4 (C04)       
1 37210U 10057A   26062.24501870 -.00000126  00000+0  00000+0 0  9997
2 37210   3.3837  69.5531 0009163 210.3539 129.3130  1.00272049 56229
BEIDOU-2 IGSO-2 (C07)   
1 37256U 10068A   26061.28389944 -.00000169  00000+0  00000+0 0  9995
2 37256  47.7363 273.1534 0047418 212.8884 243.4237  1.00259336 55720
BEIDOU-2 IGSO-3 (C08)   
1 37384U 11013A   26058.90884667 -.00000154  00000+0  00000+0 0  9999
2 37384  62.2642  41.1818 0035029 190.8154 358.7681  1.00294022 54567
BEIDOU-2 IGSO-4 (C09)   
1 37763U 11038A   26060.75143950 -.00000133  00000+0  00000+0 0  9993
2 37763  54.5889 166.6436 0154411 230.9971 126.9270  1.00265713 53567
BEIDOU-2 IGSO-5 (C10)   
1 37948U 11073A   26062.03525687 -.00000147  00000+0  00000+0 0  9996
2 37948  47.8704 272.8557 0108570 221.0910 134.7206  1.00272775 52062
BEIDOU-2 G5 (C05)       
1 38091U 12008A   26062.17025368  .00000042  00000+0  00000+0 0  9994
2 38091   3.3092  70.3169 0014114 249.9413 320.7380  1.00275843 51301
BEIDOU-2 M3 (C11)       
1 38250U 12018A   26061.87111738 -.00000057  00000+0  00000+0 0  9992
2 38250  55.8476 308.4601 0021196 279.5811  80.2400  1.86229768 93969
BEIDOU-2 M4 (C12)       
1 38251U 12018B   26061.80325391 -.00000055  00000+0  00000+0 0  9996
2 38251  55.7490 307.6852 0012856 286.3325  73.5869  1.86229510 93962
BEIDOU-2 M6 (C14)       
1 38775U 12050B   26060.97652929 -.00000006  00000+0  00000+0 0  9996
2 38775  56.4507  66.4378 0013903 341.6100  18.3756  1.86230866 91318
BEIDOU-2 G6 (C02)       
1 38953U 12059A   26062.14975223 -.00000188  00000+0  00000+0 0  9990
2 38953   4.1529  74.6599 0010609 303.7561 280.3970  1.00269586 48842
BEIDOU-3S IGSO-1S (C31) 
1 40549U 15019A   26061.65185574 -.00000159  00000+0  00000+0 0  9998
2 40549  49.3937 296.7449 0035828 190.3764   4.4663  1.00274083 40008
BEIDOU-3S M2S (C58)     
1 40748U 15037A   26061.47039307 -.00000051  00000+0  00000+0 0  9992
2 40748  54.9645 305.7221 0008897 278.2960  81.6638  1.86231797 72133
BEIDOU-3S M1S (C57)     
1 40749U 15037B   26061.69084880 -.00000053  00000+0  00000+0 0  9995
2 40749  54.9610 305.7025 0004647  29.9008 330.1863  1.86253746 72142
BEIDOU-2 IGSO-6 (C13)   
1 41434U 16021A   26061.89239137 -.00000146  00000+0  00000+0 0  9993
2 41434  60.0845  39.0929 0059819 233.4485 305.0942  1.00278596 36419
BEIDOU-2 G7 (C03)       
1 41586U 16037A   26062.03785689 -.00000368  00000+0  00000+0 0  9999
2 41586   1.4579  68.1770 0007452 341.7171 235.0587  1.00267923  5828
BEIDOU-3 M1 (C19)       
1 43001U 17069A   26060.74197850 -.00000003  00000+0  00000+0 0  9998
2 43001  56.5988  66.6221 0012398 309.4779  50.4494  1.86230886 56601
